{"fetched_at":"2026-07-23T17:55:06.836Z","source":"https://celestrak.org/NORAD/elements/gp.php?GROUP=kuiper&FORMAT=JSON","constellation":"kuiper","records":[{"OBJECT_NAME":"KUIPER-00086","OBJECT_ID":"2025-151S","EPOCH":"2026-07-22T23:47:23.253504","CLASSIFICATION_TYPE":"U","MEAN_MOTION":14.79957994,"ECCENTRICITY":0.00009831,"INCLINATION":51.9001,"RA_OF_ASC_NODE":59.8063,"ARG_OF_PERICENTER":116.6616,"MEAN_ANOMALY":243.4447,"EPHEMERIS_TYPE":0,"NORAD_CAT_ID":64832,"ELEMENT_SET_NO":999,"REV_AT_EPOCH":5537,"BSTAR":0.00047188399,"MEAN_MOTION_DOT":0.0000338,"MEAN_MOTION_DDOT":0},{"OBJECT_NAME":"KUIPER-00087","OBJECT_ID":"2025-151T","EPOCH":"2026-07-23T06:43:31.119456","CLASSIFICATION_TYPE":"U","MEAN_MOTION":14.79944619,"ECCENTRICITY":0.00005525,"INCLINATION":51.8963,"RA_OF_ASC_NODE":40.9901,"ARG_OF_PERICENTER":93.3549,"MEAN_ANOMALY":266.7477,"EPHEMERIS_TYPE":0,"NORAD_CAT_ID":64833,"ELEMENT_SET_NO":999,"REV_AT_EPOCH":5565,"BSTAR":0.00013216971,"MEAN_MOTION_DOT":0.00000787,"MEAN_MOTION_DDOT":0},{"OBJECT_NAME":"KUIPER-00089","OBJECT_ID":"2025-151U","EPOCH":"2026-07-23T06:35:47.059872","CLASSIFICATION_TYPE":"U","MEAN_MOTION":14.79953758,"ECCENTRICITY":0.000075,"INCLINATION":51.9006,"RA_OF_ASC_NODE":46.0366,"ARG_OF_PERICENTER":115.9083,"MEAN_ANOMALY":244.1957,"EPHEMERIS_TYPE":0,"NORAD_CAT_ID":64834,"ELEMENT_SET_NO":999,"REV_AT_EPOCH":5559,"BSTAR":0.00047442101,"MEAN_MOTION_DOT":0.00003399,"MEAN_MOTION_DDOT":0},{"OBJECT_NAME":"KUIPER-00090","OBJECT_ID":"2025-151V","EPOCH":"2026-07-23T06:47:23.999424","CLASSIFICATION_TYPE":"U","MEAN_MOTION":14.79953589,"ECCENTRICITY":0.0000881,"INCLINATION":51.8941,"RA_OF_ASC_NODE":38.5055,"ARG_OF_PERICENTER":75.4826,"MEAN_ANOMALY":284.6234,"EPHEMERIS_TYPE":0,"NORAD_CAT_ID":64835,"ELEMENT_SET_NO":999,"REV_AT_EPOCH":5569,"BSTAR":0.00017328977,"MEAN_MOTION_DOT":0.00001101,"MEAN_MOTION_DDOT":0},{"OBJECT_NAME":"KUIPER-00091","OBJECT_ID":"2025-151W","EPOCH":"2026-07-23T06:39:39.684960","CLASSIFICATION_TYPE":"U","MEAN_MOTION":14.79954995,"ECCENTRICITY":0.00009146,"INCLINATION":51.9019,"RA_OF_ASC_NODE":43.5418,"ARG_OF_PERICENTER":126.7295,"MEAN_ANOMALY":233.3751,"EPHEMERIS_TYPE":0,"NORAD_CAT_ID":64836,"ELEMENT_SET_NO":999,"REV_AT_EPOCH":5562,"BSTAR":0.0004694764,"MEAN_MOTION_DOT":0.00003361,"MEAN_MOTION_DDOT":0},{"OBJECT_NAME":"KUIPER-00092","OBJECT_ID":"2025-151X","EPOCH":"2026-07-23T06:27:59.601312","CLASSIFICATION_TYPE":"U","MEAN_MOTION":14.799535,"ECCENTRICITY":0.0000637,"INCLINATION":51.9002,"RA_OF_ASC_NODE":51.0683,"ARG_OF_PERICENTER":111.444,"MEAN_ANOMALY":248.659,"EPHEMERIS_TYPE":0,"NORAD_CAT_ID":64837,"ELEMENT_SET_NO":999,"REV_AT_EPOCH":5673,"BSTAR":0.00026798992,"MEAN_MOTION_DOT":0.00001823,"MEAN_MOTION_DDOT":0},{"OBJECT_NAME":"KUIPER-00093","OBJECT_ID":"2025-151Y","EPOCH":"2026-07-23T06:24:06.252192","CLASSIFICATION_TYPE":"U","MEAN_MOTION":14.79951548,"ECCENTRICITY":0.00006438,"INCLINATION":51.9001,"RA_OF_ASC_NODE":53.5546,"ARG_OF_PERICENTER":116.8347,"MEAN_ANOMALY":243.2681,"EPHEMERIS_TYPE":0,"NORAD_CAT_ID":64838,"ELEMENT_SET_NO":999,"REV_AT_EPOCH":5548,"BSTAR":0.00047210284,"MEAN_MOTION_DOT":0.00003381,"MEAN_MOTION_DDOT":0},{"OBJECT_NAME":"KUIPER-00094","OBJECT_ID":"2025-151Z","EPOCH":"2026-07-23T04:19:40.296864","CLASSIFICATION_TYPE":"U","MEAN_MOTION":14.79958119,"ECCENTRICITY":0.00010558,"INCLINATION":51.9043,"RA_OF_ASC_NODE":9.0319,"ARG_OF_PERICENTER":123.5282,"MEAN_ANOMALY":236.5782,"EPHEMERIS_TYPE":0,"NORAD_CAT_ID":64839,"ELEMENT_SET_NO":999,"REV_AT_EPOCH":5610,"BSTAR":0.00052210948,"MEAN_MOTION_DOT":0.00003764,"MEAN_MOTION_DDOT":0},{"OBJECT_NAME":"KUIPER-00081","OBJECT_ID":"2025-171A","EPOCH":"2026-07-22T21:59:59.519904","CLASSIFICATION_TYPE":"U","MEAN_MOTION":14.79957508,"ECCENTRICITY":0.00002497,"INCLINATION":51.8995,"RA_OF_ASC_NODE":270.1009,"ARG_OF_PERICENTER":78.8056,"MEAN_ANOMALY":281.2934,"EPHEMERIS_TYPE":0,"NORAD_CAT_ID":65132,"ELEMENT_SET_NO":999,"REV_AT_EPOCH":5306,"BSTAR":0.0003988915,"MEAN_MOTION_DOT":0.00002823,"MEAN_MOTION_DDOT":0},{"OBJECT_NAME":"KUIPER-00088","OBJECT_ID":"2025-171B","EPOCH":"2026-07-23T05:39:02.013408","CLASSIFICATION_TYPE":"U","MEAN_MOTION":14.79960125,"ECCENTRICITY":0.00003612,"INCLINATION":51.8985,"RA_OF_ASC_NODE":286.1933,"ARG_OF_PERICENTER":115.2243,"MEAN_ANOMALY":244.8757,"EPHEMERIS_TYPE":0,"NORAD_CAT_ID":65133,"ELEMENT_SET_NO":999,"REV_AT_EPOCH":5286,"BSTAR":0.00043496678,"MEAN_MOTION_DOT":0.00003098,"MEAN_MOTION_DDOT":0},{"OBJECT_NAME":"KUIPER-00095","OBJECT_ID":"2025-171C","EPOCH":"2026-07-22T22:03:52.731648","CLASSIFICATION_TYPE":"U","MEAN_MOTION":14.7995629,"ECCENTRICITY":0.00002507,"INCLINATION":51.8971,"RA_OF_ASC_NODE":267.6366,"ARG_OF_PERICENTER":67.3761,"MEAN_ANOMALY":292.7227,"EPHEMERIS_TYPE":0,"NORAD_CAT_ID":65134,"ELEMENT_SET_NO":999,"REV_AT_EPOCH":5309,"BSTAR":0.00035543719,"MEAN_MOTION_DOT":0.00002491,"MEAN_MOTION_DDOT":0},{"OBJECT_NAME":"KUIPER-00096","OBJECT_ID":"2025-171D","EPOCH":"2026-07-23T05:02:04.566048","CLASSIFICATION_TYPE":"U","MEAN_MOTION":14.79954409,"ECCENTRICITY":0.00002715,"INCLINATION":51.899,"RA_OF_ASC_NODE":278.8023,"ARG_OF_PERICENTER":93.1472,"MEAN_ANOMALY":266.9521,"EPHEMERIS_TYPE":0,"NORAD_CAT_ID":65135,"ELEMENT_SET_NO":999,"REV_AT_EPOCH":5296,"BSTAR":0.00041483676,"MEAN_MOTION_DOT":0.00002944,"MEAN_MOTION_DDOT":0},{"OBJECT_NAME":"KUIPER-00097","OBJECT_ID":"2025-171E","EPOCH":"2026-07-22T16:00:16.773984","CLASSIFICATION_TYPE":"U","MEAN_MOTION":14.79953684,"ECCENTRICITY":0.00002137,"INCLINATION":51.9018,"RA_OF_ASC_NODE":283.8623,"ARG_OF_PERICENTER":86.1546,"MEAN_ANOMALY":273.944,"EPHEMERIS_TYPE":0,"NORAD_CAT_ID":65136,"ELEMENT_SET_NO":999,"REV_AT_EPOCH":5283,"BSTAR":0.00039761057,"MEAN_MOTION_DOT":0.00002813,"MEAN_MOTION_DDOT":0},{"OBJECT_NAME":"KUIPER-00098","OBJECT_ID":"2025-171F","EPOCH":"2026-07-23T06:31:32.710368","CLASSIFICATION_TYPE":"U","MEAN_MOTION":14.79931629,"ECCENTRICITY":0.00003488,"INCLINATION":51.9012,"RA_OF_ASC_NODE":283.5509,"ARG_OF_PERICENTER":93.7341,"MEAN_ANOMALY":266.3661,"EPHEMERIS_TYPE":0,"NORAD_CAT_ID":65137,"ELEMENT_SET_NO":999,"REV_AT_EPOCH":5224,"BSTAR":-0.0004053634,"MEAN_MOTION_DOT":-0.0000331,"MEAN_MOTION_DDOT":0},{"OBJECT_NAME":"KUIPER-00099","OBJECT_ID":"2025-171G","EPOCH":"2026-07-21T11:50:09.730752","CLASSIFICATION_TYPE":"U","MEAN_MOTION":14.79927004,"ECCENTRICITY":0.00006078,"INCLINATION":51.9028,"RA_OF_ASC_NODE":281.4219,"ARG_OF_PERICENTER":94.8318,"MEAN_ANOMALY":265.2713,"EPHEMERIS_TYPE":0,"NORAD_CAT_ID":65138,"ELEMENT_SET_NO":999,"REV_AT_EPOCH":5277,"BSTAR":0.00030679072,"MEAN_MOTION_DOT":0.00002118,"MEAN_MOTION_DDOT":0},{"OBJECT_NAME":"KUIPER-00100","OBJECT_ID":"2025-171H","EPOCH":"2026-07-23T05:13:41.858112","CLASSIFICATION_TYPE":"U","MEAN_MOTION":14.79958272,"ECCENTRICITY":0.0000342,"INCLINATION":51.9009,"RA_OF_ASC_NODE":271.2647,"ARG_OF_PERICENTER":85.5729,"MEAN_ANOMALY":274.5272,"EPHEMERIS_TYPE":0,"NORAD_CAT_ID":65139,"ELEMENT_SET_NO":999,"REV_AT_EPOCH":5306,"BSTAR":0.00038920149,"MEAN_MOTION_DOT":0.00002749,"MEAN_MOTION_DDOT":0},{"OBJECT_NAME":"KUIPER-00102","OBJECT_ID":"2025-171J","EPOCH":"2026-07-23T05:09:49.393728","CLASSIFICATION_TYPE":"U","MEAN_MOTION":14.7995529,"ECCENTRICITY":0.00003006,"INCLINATION":51.8945,"RA_OF_ASC_NODE":273.761,"ARG_OF_PERICENTER":53.326,"MEAN_ANOMALY":306.773,"EPHEMERIS_TYPE":0,"NORAD_CAT_ID":65140,"ELEMENT_SET_NO":999,"REV_AT_EPOCH":5302,"BSTAR":0.00040889003,"MEAN_MOTION_DOT":0.00002899,"MEAN_MOTION_DDOT":0},{"OBJECT_NAME":"KUIPER-00103","OBJECT_ID":"2025-171K","EPOCH":"2026-07-23T05:31:15.506112","CLASSIFICATION_TYPE":"U","MEAN_MOTION":14.79940172,"ECCENTRICITY":0.00008238,"INCLINATION":51.8972,"RA_OF_ASC_NODE":291.1968,"ARG_OF_PERICENTER":82.2116,"MEAN_ANOMALY":277.894,"EPHEMERIS_TYPE":0,"NORAD_CAT_ID":65141,"ELEMENT_SET_NO":999,"REV_AT_EPOCH":5278,"BSTAR":-0.00018894503,"MEAN_MOTION_DOT":-0.00001661,"MEAN_MOTION_DDOT":0},{"OBJECT_NAME":"KUIPER-00104","OBJECT_ID":"2025-171L","EPOCH":"2026-07-23T05:50:41.995968","CLASSIFICATION_TYPE":"U","MEAN_MOTION":14.79953065,"ECCENTRICITY":0.00003073,"INCLINATION":51.9023,"RA_OF_ASC_NODE":278.6382,"ARG_OF_PERICENTER":98.3282,"MEAN_ANOMALY":261.7715,"EPHEMERIS_TYPE":0,"NORAD_CAT_ID":65142,"ELEMENT_SET_NO":999,"REV_AT_EPOCH":5296,"BSTAR":0.00037275693,"MEAN_MOTION_DOT":0.00002623,"MEAN_MOTION_DDOT":0},{"OBJECT_NAME":"KUIPER-00105","OBJECT_ID":"2025-171M","EPOCH":"2026-07-23T04:50:25.431936","CLASSIFICATION_TYPE":"U","MEAN_MOTION":14.79931343,"ECCENTRICITY":0.00002665,"INCLINATION":51.9015,"RA_OF_ASC_NODE":286.4231,"ARG_OF_PERICENTER":104.6504,"MEAN_ANOMALY":255.4488,"EPHEMERIS_TYPE":0,"NORAD_CAT_ID":65143,"ELEMENT_SET_NO":999,"REV_AT_EPOCH":5285,"BSTAR":-0.00017230331,"MEAN_MOTION_DOT":-0.00001534,"MEAN_MOTION_DDOT":0},{"OBJECT_NAME":"KUIPER-00106","OBJECT_ID":"2025-171N","EPOCH":"2026-07-22T21:53:43.637568","CLASSIFICATION_TYPE":"U","MEAN_MOTION":14.79947041,"ECCENTRICITY":0.00002022,"INCLINATION":51.9012,"RA_OF_ASC_NODE":266.4657,"ARG_OF_PERICENTER":108.9927,"MEAN_ANOMALY":251.1057,"EPHEMERIS_TYPE":0,"NORAD_CAT_ID":65144,"ELEMENT_SET_NO":999,"REV_AT_EPOCH":5311,"BSTAR":0.00036174632,"MEAN_MOTION_DOT":0.00002539,"MEAN_MOTION_DDOT":0},{"OBJECT_NAME":"KUIPER-00107","OBJECT_ID":"2025-171P","EPOCH":"2026-07-22T21:11:25.177056","CLASSIFICATION_TYPE":"U","MEAN_MOTION":14.79947292,"ECCENTRICITY":0.00003055,"INCLINATION":51.9008,"RA_OF_ASC_NODE":270.2741,"ARG_OF_PERICENTER":94.4011,"MEAN_ANOMALY":265.6987,"EPHEMERIS_TYPE":0,"NORAD_CAT_ID":65145,"ELEMENT_SET_NO":999,"REV_AT_EPOCH":5305,"BSTAR":0.00032338057,"MEAN_MOTION_DOT":0.00002246,"MEAN_MOTION_DDOT":0},{"OBJECT_NAME":"KUIPER-00108","OBJECT_ID":"2025-171Q","EPOCH":"2026-07-21T14:53:01.671936","CLASSIFICATION_TYPE":"U","MEAN_MOTION":14.79942969,"ECCENTRICITY":0.00003346,"INCLINATION":51.9033,"RA_OF_ASC_NODE":288.3961,"ARG_OF_PERICENTER":103.7444,"MEAN_ANOMALY":256.3556,"EPHEMERIS_TYPE":0,"NORAD_CAT_ID":65146,"ELEMENT_SET_NO":999,"REV_AT_EPOCH":5269,"BSTAR":0.00030904309,"MEAN_MOTION_DOT":0.00002136,"MEAN_MOTION_DDOT":0}]}
